{
    "links": {
        "self": "http://www.neowsapp.com/rest/v1/neo/3619733?api_key=iIulBulltgU6a56xZRHN4H3l9WmuAYTsLGpBGhQ2"
    },
    "id": "3619733",
    "neo_reference_id": "3619733",
    "name": "(2012 XO55)",
    "designation": "2012 XO55",
    "nasa_jpl_url": "http://ssd.jpl.nasa.gov/sbdb.cgi?sstr=3619733",
    "absolute_magnitude_h": 25.0,
    "estimated_diameter": {
        "kilometers": {
            "estimated_diameter_min": 0.02658,
            "estimated_diameter_max": 0.0594346868
        },
        "meters": {
            "estimated_diameter_min": 26.58,
            "estimated_diameter_max": 59.4346868419
        },
        "miles": {
            "estimated_diameter_min": 0.0165160412,
            "estimated_diameter_max": 0.0369309908
        },
        "feet": {
            "estimated_diameter_min": 87.2047272,
            "estimated_diameter_max": 194.9956979785
        }
    },
    "is_potentially_hazardous_asteroid": false,
    "close_approach_data": [
        {
            "close_approach_date": "2012-12-03",
            "close_approach_date_full": "2012-Dec-03 02:31",
            "epoch_date_close_approach": 1354501860000,
            "relative_velocity": {
                "kilometers_per_second": "12.3713940421",
                "kilometers_per_hour": "44537.0185515139",
                "miles_per_hour": "27673.5713327449"
            },
            "miss_distance": {
                "astronomical": "0.0386284054",
                "lunar": "15.0264497006",
                "kilometers": "5778727.169336498",
                "miles": "3590734.5584517524"
            },
            "orbiting_body": "Earth"
        }
    ],
    "orbital_data": {
        "orbit_id": "5",
        "orbit_determination_date": "2017-04-06 08:47:43",
        "first_observation_date": "2012-12-08",
        "last_observation_date": "2012-12-18",
        "data_arc_in_days": 10,
        "observations_used": 36,
        "orbit_uncertainty": "8",
        "minimum_orbit_intersection": ".0375673",
        "jupiter_tisserand_invariant": "3.631",
        "epoch_osculation": "2456271.5",
        "eccentricity": ".5297815390338843",
        "semi_major_axis": "1.995994789083345",
        "inclination": "12.92987893839592",
        "ascending_node_longitude": "77.22196140862097",
        "orbital_period": "1030.000727825255",
        "perihelion_distance": ".9385535978191571",
        "perihelion_argument": "315.2916047235506",
        "aphelion_distance": "3.053435980347532",
        "perihelion_time": "2456234.767356943063",
        "mean_anomaly": "12.83858461771961",
        "mean_motion": ".3495143161307318",
        "equinox": "J2000",
        "orbit_class": {
            "orbit_class_type": "APO",
            "orbit_class_description": "Near-Earth asteroid orbits which cross the Earth’s orbit similar to that of 1862 Apollo",
            "orbit_class_range": "a (semi-major axis) > 1.0 AU; q (perihelion) < 1.017 AU"
        }
    },
    "is_sentry_object": false
}